IRIDIUM 116             
1 43072U 17083C   24156.04073154  .00000066  00000+0  16576-4 0  9997
2 43072  86.3953 272.5580 0002199  96.7864 263.3582 14.34217174337659
IRIDIUM 130             
1 43073U 17083D   24155.79971295 -.00000060  00000+0 -28348-4 0  9998
2 43073  86.3962 272.8622 0002076  96.5560 263.5872 14.34217136337567
IRIDIUM 151             
1 43074U 17083E   24155.56503714  .00000239  00000+0  78368-4 0  9994
2 43074  86.3956 272.7978 0002350  90.4284 269.7181 14.34217708337550
IRIDIUM 134             
1 43075U 17083F   24155.60309170  .00000298  00000+0  99417-4 0  9993
2 43075  86.3960 272.7801 0002088 100.4140 259.7291 14.34217256337528
IRIDIUM 137             
1 43076U 17083G   24155.40646764  .00000241  00000+0  78959-4 0  9991
2 43076  86.3967 272.9408 0002884  97.3501 262.8022 14.34215192337568
IRIDIUM 141             
1 43077U 17083H   24155.60943451 -.00000013  00000+0 -11854-4 0  9997
2 43077  86.3955 272.7279 0002099  92.1973 267.9463 14.34217662337596
IRIDIUM 131             
1 43079U 17083K   24155.73628752 -.00000152  00000+0 -61359-4 0  9996
2 43079  86.3961 272.8116 0002309  93.1429 267.0031 14.34216838337548
